CCSDS_OMM_VERS = 2.0
CREATION_DATE  = 
ORIGINATOR     = 

OBJECT_NAME    = STARLINK-35640
OBJECT_ID      = 2025-265W
CENTER_NAME    = EARTH
REF_FRAME      = TEME
TIME_SYSTEM    = UTC
MEAN_ELEMENT_THEORY = SGP/SGP4

EPOCH          = 2025-12-04T18:00:02.000160
MEAN_MOTION    = 15.72743385
ECCENTRICITY   = .0001277
INCLINATION    = 43.0002
RA_OF_ASC_NODE = 101.1655
ARG_OF_PERICENTER = 282.9067
MEAN_ANOMALY   = 29.9700

EPHEMERIS_TYPE = 0
CLASSIFICATION_TYPE = U
NORAD_CAT_ID   = 66536
ELEMENT_SET_NO = 999
REV_AT_EPOCH   = 369
BSTAR          = -.15016E-1
MEAN_MOTION_DOT = -.1825224E-1
MEAN_MOTION_DDOT = 0

CCSDS_OMM_VERS = 2.0
CREATION_DATE  = 
ORIGINATOR     = 

OBJECT_NAME    = STARLINK-35582
OBJECT_ID      = 2025-265X
CENTER_NAME    = EARTH
REF_FRAME      = TEME
TIME_SYSTEM    = UTC
MEAN_ELEMENT_THEORY = SGP/SGP4

EPOCH          = 2025-12-04T18:00:02.000160
MEAN_MOTION    = 15.72752991
ECCENTRICITY   = .0001519
INCLINATION    = 43.0004
RA_OF_ASC_NODE = 101.1605
ARG_OF_PERICENTER = 280.9947
MEAN_ANOMALY   = 33.7920

EPHEMERIS_TYPE = 0
CLASSIFICATION_TYPE = U
NORAD_CAT_ID   = 66537
ELEMENT_SET_NO = 999
REV_AT_EPOCH   = 371
BSTAR          = -.15091E-1
MEAN_MOTION_DOT = -.1834073E-1
MEAN_MOTION_DDOT = 0

CCSDS_OMM_VERS = 2.0
CREATION_DATE  = 
ORIGINATOR     = 

OBJECT_NAME    = STARLINK-35577
OBJECT_ID      = 2025-265Y
CENTER_NAME    = EARTH
REF_FRAME      = TEME
TIME_SYSTEM    = UTC
MEAN_ELEMENT_THEORY = SGP/SGP4

EPOCH          = 2025-12-04T18:00:02.000160
MEAN_MOTION    = 15.72744715
ECCENTRICITY   = .0001498
INCLINATION    = 43.0004
RA_OF_ASC_NODE = 101.1554
ARG_OF_PERICENTER = 282.0304
MEAN_ANOMALY   = 34.6794

EPHEMERIS_TYPE = 0
CLASSIFICATION_TYPE = U
NORAD_CAT_ID   = 66538
ELEMENT_SET_NO = 999
REV_AT_EPOCH   = 371
BSTAR          = -.15018E-1
MEAN_MOTION_DOT = -.1825678E-1
MEAN_MOTION_DDOT = 0

CCSDS_OMM_VERS = 2.0
CREATION_DATE  = 
ORIGINATOR     = 

OBJECT_NAME    = STARLINK-35697
OBJECT_ID      = 2025-265Z
CENTER_NAME    = EARTH
REF_FRAME      = TEME
TIME_SYSTEM    = UTC
MEAN_ELEMENT_THEORY = SGP/SGP4

EPOCH          = 2025-12-04T18:00:02.000160
MEAN_MOTION    = 15.72745683
ECCENTRICITY   = .0001281
INCLINATION    = 43.0004
RA_OF_ASC_NODE = 101.1502
ARG_OF_PERICENTER = 277.6107
MEAN_ANOMALY   = 41.0173

EPHEMERIS_TYPE = 0
CLASSIFICATION_TYPE = U
NORAD_CAT_ID   = 66539
ELEMENT_SET_NO = 999
REV_AT_EPOCH   = 371
BSTAR          = -.15042E-1
MEAN_MOTION_DOT = -.1828146E-1
MEAN_MOTION_DDOT = 0

CCSDS_OMM_VERS = 2.0
CREATION_DATE  = 
ORIGINATOR     = 

OBJECT_NAME    = STARLINK-35818
OBJECT_ID      = 2025-265AA
CENTER_NAME    = EARTH
REF_FRAME      = TEME
TIME_SYSTEM    = UTC
MEAN_ELEMENT_THEORY = SGP/SGP4

EPOCH          = 2025-12-04T18:00:02.000160
MEAN_MOTION    = 15.72743604
ECCENTRICITY   = .0001643
INCLINATION    = 43.0002
RA_OF_ASC_NODE = 101.1458
ARG_OF_PERICENTER = 284.5709
MEAN_ANOMALY   = 35.9723

EPHEMERIS_TYPE = 0
CLASSIFICATION_TYPE = U
NORAD_CAT_ID   = 66540
ELEMENT_SET_NO = 999
REV_AT_EPOCH   = 371
BSTAR          = -.14999E-1
MEAN_MOTION_DOT = -.1823762E-1
MEAN_MOTION_DDOT = 0

CCSDS_OMM_VERS = 2.0
CREATION_DATE  = 
ORIGINATOR     = 

OBJECT_NAME    = STARLINK-35796
OBJECT_ID      = 2025-265AB
CENTER_NAME    = EARTH
REF_FRAME      = TEME
TIME_SYSTEM    = UTC
MEAN_ELEMENT_THEORY = SGP/SGP4

EPOCH          = 2025-12-04T18:00:02.000160
MEAN_MOTION    = 15.72747530
ECCENTRICITY   = .0001592
INCLINATION    = 43.0002
RA_OF_ASC_NODE = 101.1409
ARG_OF_PERICENTER = 283.1172
MEAN_ANOMALY   = 39.3414

EPHEMERIS_TYPE = 0
CLASSIFICATION_TYPE = U
NORAD_CAT_ID   = 66541
ELEMENT_SET_NO = 999
REV_AT_EPOCH   = 371
BSTAR          = -.15041E-1
MEAN_MOTION_DOT = -.1828392E-1
MEAN_MOTION_DDOT = 0

CCSDS_OMM_VERS = 2.0
CREATION_DATE  = 
ORIGINATOR     = 

OBJECT_NAME    = STARLINK-35833
OBJECT_ID      = 2025-265AC
CENTER_NAME    = EARTH
REF_FRAME      = TEME
TIME_SYSTEM    = UTC
MEAN_ELEMENT_THEORY = SGP/SGP4

EPOCH          = 2025-12-04T18:00:02.000160
MEAN_MOTION    = 15.72748156
ECCENTRICITY   = .0001263
INCLINATION    = 43.0003
RA_OF_ASC_NODE = 101.1365
ARG_OF_PERICENTER = 279.9959
MEAN_ANOMALY   = 44.3806

EPHEMERIS_TYPE = 0
CLASSIFICATION_TYPE = U
NORAD_CAT_ID   = 66542
ELEMENT_SET_NO = 999
REV_AT_EPOCH   = 371
BSTAR          = -.15061E-1
MEAN_MOTION_DOT = -.1830271E-1
MEAN_MOTION_DDOT = 0

CCSDS_OMM_VERS = 2.0
CREATION_DATE  = 
ORIGINATOR     = 

OBJECT_NAME    = STARLINK-35315
OBJECT_ID      = 2025-265AD
CENTER_NAME    = EARTH
REF_FRAME      = TEME
TIME_SYSTEM    = UTC
MEAN_ELEMENT_THEORY = SGP/SGP4

EPOCH          = 2025-12-04T18:00:02.000160
MEAN_MOTION    = 15.72744577
ECCENTRICITY   = .0001527
INCLINATION    = 43.0002
RA_OF_ASC_NODE = 101.1310
ARG_OF_PERICENTER = 285.5858
MEAN_ANOMALY   = 40.7079

EPHEMERIS_TYPE = 0
CLASSIFICATION_TYPE = U
NORAD_CAT_ID   = 66543
ELEMENT_SET_NO = 999
REV_AT_EPOCH   = 360
BSTAR          = -.15008E-1
MEAN_MOTION_DOT = -.182465E-1
MEAN_MOTION_DDOT = 0

CCSDS_OMM_VERS = 2.0
CREATION_DATE  = 
ORIGINATOR     = 

OBJECT_NAME    = STARLINK-35728
OBJECT_ID      = 2025-265AE
CENTER_NAME    = EARTH
REF_FRAME      = TEME
TIME_SYSTEM    = UTC
MEAN_ELEMENT_THEORY = SGP/SGP4

EPOCH          = 2025-12-04T18:00:02.000160
MEAN_MOTION    = 15.72747217
ECCENTRICITY   = .0001256
INCLINATION    = 43.0002
RA_OF_ASC_NODE = 101.1266
ARG_OF_PERICENTER = 278.1157
MEAN_ANOMALY   = 50.0961

EPHEMERIS_TYPE = 0
CLASSIFICATION_TYPE = U
NORAD_CAT_ID   = 66544
ELEMENT_SET_NO = 999
REV_AT_EPOCH   = 371
BSTAR          = -.15052E-1
MEAN_MOTION_DOT = -.1829293E-1
MEAN_MOTION_DDOT = 0

CCSDS_OMM_VERS = 2.0
CREATION_DATE  = 
ORIGINATOR     = 

OBJECT_NAME    = SHIJIAN-30A
OBJECT_ID      = 2025-266A
CENTER_NAME    = EARTH
REF_FRAME      = TEME
TIME_SYSTEM    = UTC
MEAN_ELEMENT_THEORY = SGP/SGP4

EPOCH          = 2025-12-04T17:05:12.098976
MEAN_MOTION    = 15.15395635
ECCENTRICITY   = .0012832
INCLINATION    = 51.7998
RA_OF_ASC_NODE = 10.4683
ARG_OF_PERICENTER = 328.0400
MEAN_ANOMALY   = 31.9797

EPHEMERIS_TYPE = 0
CLASSIFICATION_TYPE = U
NORAD_CAT_ID   = 66545
ELEMENT_SET_NO = 999
REV_AT_EPOCH   = 236
BSTAR          = .11541E-2
MEAN_MOTION_DOT = .21866E-3
MEAN_MOTION_DDOT = 0

CCSDS_OMM_VERS = 2.0
CREATION_DATE  = 
ORIGINATOR     = 

OBJECT_NAME    = SHIJIAN-30B
OBJECT_ID      = 2025-266B
CENTER_NAME    = EARTH
REF_FRAME      = TEME
TIME_SYSTEM    = UTC
MEAN_ELEMENT_THEORY = SGP/SGP4

EPOCH          = 2025-12-04T17:06:32.703264
MEAN_MOTION    = 15.15466175
ECCENTRICITY   = .00105
INCLINATION    = 51.7981
RA_OF_ASC_NODE = 10.4721
ARG_OF_PERICENTER = 331.0664
MEAN_ANOMALY   = 28.9729

EPHEMERIS_TYPE = 0
CLASSIFICATION_TYPE = U
NORAD_CAT_ID   = 66546
ELEMENT_SET_NO = 999
REV_AT_EPOCH   = 236
BSTAR          = .13161E-2
MEAN_MOTION_DOT = .25025E-3
MEAN_MOTION_DDOT = 0

CCSDS_OMM_VERS = 2.0
CREATION_DATE  = 
ORIGINATOR     = 

OBJECT_NAME    = SHIJIAN-30C
OBJECT_ID      = 2025-266C
CENTER_NAME    = EARTH
REF_FRAME      = TEME
TIME_SYSTEM    = UTC
MEAN_ELEMENT_THEORY = SGP/SGP4

EPOCH          = 2025-12-04T17:07:35.369184
MEAN_MOTION    = 15.15495105
ECCENTRICITY   = .001136
INCLINATION    = 51.7993
RA_OF_ASC_NODE = 10.4772
ARG_OF_PERICENTER = 323.1622
MEAN_ANOMALY   = 36.8573

EPHEMERIS_TYPE = 0
CLASSIFICATION_TYPE = U
NORAD_CAT_ID   = 66547
ELEMENT_SET_NO = 999
REV_AT_EPOCH   = 236
BSTAR          = .12189E-2
MEAN_MOTION_DOT = .23171E-3
MEAN_MOTION_DDOT = 0

