STARLINK-35640          
1 66536U 25265W   25338.75002315 -.01825224  00000+0 -15016-1 0  9999
2 66536  43.0002 101.1655 0001277 282.9067  29.9700 15.72743385  3697
STARLINK-35582          
1 66537U 25265X   25338.75002315 -.01834073  00000+0 -15091-1 0  9995
2 66537  43.0004 101.1605 0001519 280.9947  33.7920 15.72752991  3712
STARLINK-35577          
1 66538U 25265Y   25338.75002315 -.01825678  00000+0 -15018-1 0  9996
2 66538  43.0004 101.1554 0001498 282.0304  34.6794 15.72744715  3716
STARLINK-35697          
1 66539U 25265Z   25338.75002315 -.01828146  00000+0 -15042-1 0  9997
2 66539  43.0004 101.1502 0001281 277.6107  41.0173 15.72745683  3719
STARLINK-35818          
1 66540U 25265AA  25338.75002315 -.01823762  00000+0 -14999-1 0  9998
2 66540  43.0002 101.1458 0001643 284.5709  35.9723 15.72743604  3710
STARLINK-35796          
1 66541U 25265AB  25338.75002315 -.01828392  00000+0 -15041-1 0  9992
2 66541  43.0002 101.1409 0001592 283.1172  39.3414 15.72747530  3716
STARLINK-35833          
1 66542U 25265AC  25338.75002315 -.01830271  00000+0 -15061-1 0  9994
2 66542  43.0003 101.1365 0001263 279.9959  44.3806 15.72748156  3716
STARLINK-35315          
1 66543U 25265AD  25338.75002315 -.01824650  00000+0 -15008-1 0  9990
2 66543  43.0002 101.1310 0001527 285.5858  40.7079 15.72744577  3603
STARLINK-35728          
1 66544U 25265AE  25338.75002315 -.01829293  00000+0 -15052-1 0  9998
2 66544  43.0002 101.1266 0001256 278.1157  50.0961 15.72747217  3713
SHIJIAN-30A             
1 66545U 25266A   25338.71194559  .00021866  00000+0  11541-2 0  9995
2 66545  51.7998  10.4683 0012832 328.0400  31.9797 15.15395635  2362
SHIJIAN-30B             
1 66546U 25266B   25338.71287851  .00025025  00000+0  13161-2 0  9995
2 66546  51.7981  10.4721 0010500 331.0664  28.9729 15.15466175  2363
SHIJIAN-30C             
1 66547U 25266C   25338.71360381  .00023171  00000+0  12189-2 0  9995
2 66547  51.7993  10.4772 0011360 323.1622  36.8573 15.15495105  2364
